{"type": "FeatureCollection", "features": [ {"type": "Feature", "properties": {"norad_id": 66950, "name": "STARLINK-36111", "group": "last-30-days", "lat": -41.76279150725504, "lon": -42.97464470549144, "alt_km": 361.90526194632366, "timestamp": "2025-12-22T23:36:19.412600+00:00", "meta": {"OBJECT_NAME": "STARLINK-36111", "OBJECT_ID": "2025-286AB", "EPOCH": "2025-12-22T20:00:01.999008", "MEAN_MOTION": 15.71332188, "ECCENTRICITY": 0.0001096, "INCLINATION": 53.159, "RA_OF_ASC_NODE": 359.7948, "ARG_OF_PERICENTER": 87.9096, "MEAN_ANOMALY": 85.8269, "EPHEMERIS_TYPE": 0, "CLASSIFICATION_TYPE": "U", "NORAD_CAT_ID": 66950, "ELEMENT_SET_NO": 999, "REV_AT_EPOCH": 361, "BSTAR": -0.016846, "MEAN_MOTION_DOT": -0.01935875, "MEAN_MOTION_DDOT": 0}, "tle": {"line1": "1 66950U 25286AB  25356.83335647 -.01935875  00000+0 -16846-1 0  9994", "line2": "2 66950  53.1590 359.7948 0001096  87.9096  85.8269 15.71332188  3618"}}, "geometry": {"type": "Point", "coordinates": [-42.97464470549144, -41.76279150725504]}}, {"type": "Feature", "properties": {"norad_id": 66951, "name": "STARLINK-35999", "group": "last-30-days", "lat": -40.607311817611276, "lon": -40.95111411882879, "alt_km": 361.8187546320496, "timestamp": "2025-12-22T23:36:19.412612+00:00", "meta": {"OBJECT_NAME": "STARLINK-35999", "OBJECT_ID": "2025-286AC", "EPOCH": "2025-12-22T20:00:01.999008", "MEAN_MOTION": 15.71334336, "ECCENTRICITY": 0.0001099, "INCLINATION": 53.1591, "RA_OF_ASC_NODE": 359.7907, "ARG_OF_PERICENTER": 85.0861, "MEAN_ANOMALY": 90.5673, "EPHEMERIS_TYPE": 0, "CLASSIFICATION_TYPE": "U", "NORAD_CAT_ID": 66951, "ELEMENT_SET_NO": 999, "REV_AT_EPOCH": 361, "BSTAR": -0.016884, "MEAN_MOTION_DOT": -0.01939826, "MEAN_MOTION_DDOT": 0}, "tle": {"line1": "1 66951U 25286AC  25356.83335647 -.01939826  00000+0 -16884-1 0  9997", "line2": "2 66951  53.1591 359.7907 0001099  85.0861  90.5673 15.71334336  3616"}}, "geometry": {"type": "Point", "coordinates": [-40.95111411882879, -40.607311817611276]}}, {"type": "Feature", "properties": {"norad_id": 66952, "name": "STARLINK-36122", "group": "last-30-days", "lat": -42.880802995911345, "lon": -45.0700027961605, "alt_km": 361.99294338745585, "timestamp": "2025-12-22T23:36:19.412624+00:00", "meta": {"OBJECT_NAME": "STARLINK-36122", "OBJECT_ID": "2025-286AD", "EPOCH": "2025-12-22T20:00:01.999008", "MEAN_MOTION": 15.71328673, "ECCENTRICITY": 0.0001187, "INCLINATION": 53.159, "RA_OF_ASC_NODE": 359.799, "ARG_OF_PERICENTER": 83.9482, "MEAN_ANOMALY": 87.8749, "EPHEMERIS_TYPE": 0, "CLASSIFICATION_TYPE": "U", "NORAD_CAT_ID": 66952, "ELEMENT_SET_NO": 999, "REV_AT_EPOCH": 361, "BSTAR": -0.016823, "MEAN_MOTION_DOT": -0.01933279, "MEAN_MOTION_DDOT": 0}, "tle": {"line1": "1 66952U 25286AD  25356.83335647 -.01933279  00000+0 -16823-1 0  9997", "line2": "2 66952  53.1590 359.7990 0001187  83.9482  87.8749 15.71328673  3612"}}, "geometry": {"type": "Point", "coordinates": [-45.0700027961605, -42.880802995911345]}}, {"type": "Feature", "properties": {"norad_id": 66953, "name": "HULIANWANG DIGUI-114", "group": "last-30-days", "lat": -10.430032684390353, "lon": 163.07656569958533, "alt_km": 1010.6229188666293, "timestamp": "2025-12-22T23:36:19.412634+00:00", "meta": {"OBJECT_NAME": "HULIANWANG DIGUI-114", "OBJECT_ID": "2025-287A", "EPOCH": "2025-12-20T09:09:14.655168", "MEAN_MOTION": 13.66161866, "ECCENTRICITY": 0.00096738, "INCLINATION": 86.496, "RA_OF_ASC_NODE": 343.3747, "ARG_OF_PERICENTER": 185.0352, "MEAN_ANOMALY": 175.071, "EPHEMERIS_TYPE": 0, "CLASSIFICATION_TYPE": "U", "NORAD_CAT_ID": 66953, "ELEMENT_SET_NO": 999, "REV_AT_EPOCH": 157, "BSTAR": 3.033618e-06, "MEAN_MOTION_DOT": 1.9e-07, "MEAN_MOTION_DDOT": 0}, "tle": {"line1": "1 66953U 25287A   25354.38141962  .00000019  00000+0  30336-5 0  9995", "line2": "2 66953  86.4960 343.3747 0009673 185.0352 175.0710 13.66161866  1572"}}, "geometry": {"type": "Point", "coordinates": [163.07656569958533, -10.430032684390353]}}, {"type": "Feature", "properties": {"norad_id": 66954, "name": "HULIANWANG DIGUI-115", "group": "last-30-days", "lat": -20.025172991638275, "lon": 163.7104032919671, "alt_km": 1010.5888861406092, "timestamp": "2025-12-22T23:36:19.412644+00:00", "meta": {"OBJECT_NAME": "HULIANWANG DIGUI-115", "OBJECT_ID": "2025-287B", "EPOCH": "2025-12-20T14:23:56.755680", "MEAN_MOTION": 13.66603826, "ECCENTRICITY": 0.00094984, "INCLINATION": 86.4975, "RA_OF_ASC_NODE": 343.2967, "ARG_OF_PERICENTER": 182.0064, "MEAN_ANOMALY": 178.1058, "EPHEMERIS_TYPE": 0, "CLASSIFICATION_TYPE": "U", "NORAD_CAT_ID": 66954, "ELEMENT_SET_NO": 999, "REV_AT_EPOCH": 160, "BSTAR": -9.79328e-07, "MEAN_MOTION_DOT": 1.6e-07, "MEAN_MOTION_DDOT": 0}, "tle": {"line1": "1 66954U 25287B   25354.59996245  .00000016  00000+0 -97933-6 0  9996", "line2": "2 66954  86.4975 343.2967 0009498 182.0064 178.1058 13.66603826  1604"}}, "geometry": {"type": "Point", "coordinates": [163.7104032919671, -20.025172991638275]}}, {"type": "Feature", "properties": {"norad_id": 66955, "name": "HULIANWANG DIGUI-116", "group": "last-30-days", "lat": -29.83917950619527, "lon": 164.43094844146256, "alt_km": 1011.5309410104219, "timestamp": "2025-12-22T23:36:19.412654+00:00", "meta": {"OBJECT_NAME": "HULIANWANG DIGUI-116", "OBJECT_ID": "2025-287C", "EPOCH": "2025-12-20T16:07:29.631072", "MEAN_MOTION": 13.67009251, "ECCENTRICITY": 0.00086607, "INCLINATION": 86.4918, "RA_OF_ASC_NODE": 343.2556, "ARG_OF_PERICENTER": 174.268, "MEAN_ANOMALY": 185.8579, "EPHEMERIS_TYPE": 0, "CLASSIFICATION_TYPE": "U", "NORAD_CAT_ID": 66955, "ELEMENT_SET_NO": 999, "REV_AT_EPOCH": 161, "BSTAR": 0.00012368885, "MEAN_MOTION_DOT": 1.2e-06, "MEAN_MOTION_DDOT": 0}, "tle": {"line1": "1 66955U 25287C   25354.67187073  .00000120  00000+0  12369-3 0  9999", "line2": "2 66955  86.4918 343.2556 0008660 174.2680 185.8579 13.67009251  1610"}}, "geometry": {"type": "Point", "coordinates": [164.43094844146256, -29.83917950619527]}}, {"type": "Feature", "properties": {"norad_id": 66956, "name": "HULIANWANG DIGUI-117", "group": "last-30-days", "lat": -45.25338853383015, "lon": 165.9685999199037, "alt_km": 1011.6623489123222, "timestamp": "2025-12-22T23:36:19.412664+00:00", "meta": {"OBJECT_NAME": "HULIANWANG DIGUI-117", "OBJECT_ID": "2025-287D", "EPOCH": "2025-12-18T14:55:12.079776", "MEAN_MOTION": 13.67770338, "ECCENTRICITY": 0.00076767, "INCLINATION": 86.4971, "RA_OF_ASC_NODE": 344.0126, "ARG_OF_PERICENTER": 176.3616, "MEAN_ANOMALY": 183.76, "EPHEMERIS_TYPE": 0, "CLASSIFICATION_TYPE": "U", "NORAD_CAT_ID": 66956, "ELEMENT_SET_NO": 999, "REV_AT_EPOCH": 133, "BSTAR": 1.0922436e-05, "MEAN_MOTION_DOT": 2.6e-07, "MEAN_MOTION_DDOT": 0}, "tle": {"line1": "1 66956U 25287D   25352.62166759  .00000026  00000+0  10922-4 0  9990", "line2": "2 66956  86.4971 344.0126 0007676 176.3616 183.7600 13.67770338  1332"}}, "geometry": {"type": "Point", "coordinates": [165.9685999199037, -45.25338853383015]}}, {"type": "Feature", "properties": {"norad_id": 66957, "name": "HULIANWANG DIGUI-118", "group": "last-30-days", "lat": -47.85156527885686, "lon": 166.30436884246396, "alt_km": 1013.5337774757809, "timestamp": "2025-12-22T23:36:19.412674+00:00", "meta": {"OBJECT_NAME": "HULIANWANG DIGUI-118", "OBJECT_ID": "2025-287E", "EPOCH": "2025-12-21T00:50:13.849728", "MEAN_MOTION": 13.6751011, "ECCENTRICITY": 0.00054729, "INCLINATION": 86.4946, "RA_OF_ASC_NODE": 343.1304, "ARG_OF_PERICENTER": 170.9065, "MEAN_ANOMALY": 189.2194, "EPHEMERIS_TYPE": 0, "CLASSIFICATION_TYPE": "U", "NORAD_CAT_ID": 66957, "ELEMENT_SET_NO": 999, "REV_AT_EPOCH": 166, "BSTAR": 0.00013223305, "MEAN_MOTION_DOT": 1.28e-06, "MEAN_MOTION_DDOT": 0}, "tle": {"line1": "1 66957U 25287E   25355.03488252  .00000128  00000+0  13223-3 0  9993", "line2": "2 66957  86.4946 343.1304 0005472 170.9065 189.2194 13.67510110  1668"}}, "geometry": {"type": "Point", "coordinates": [166.30436884246396, -47.85156527885686]}}, {"type": "Feature", "properties": {"norad_id": 66958, "name": "CZ-6A R/B", "group": "last-30-days", "lat": 62.815975516083874, "lon": 155.37481453925056, "alt_km": 850.2684744168337, "timestamp": "2025-12-22T23:36:19.412684+00:00", "meta": {"OBJECT_NAME": "CZ-6A R/B", "OBJECT_ID": "2025-287F", "EPOCH": "2025-12-22T14:26:55.203648", "MEAN_MOTION": 13.94921326, "ECCENTRICITY": 0.01072178, "INCLINATION": 86.5063, "RA_OF_ASC_NODE": 342.3513, "ARG_OF_PERICENTER": 72.4964, "MEAN_ANOMALY": 288.7893, "EPHEMERIS_TYPE": 0, "CLASSIFICATION_TYPE": "U", "NORAD_CAT_ID": 66958, "ELEMENT_SET_NO": 999, "REV_AT_EPOCH": 191, "BSTAR": 5.1077925e-05, "MEAN_MOTION_DOT": 9.1e-07, "MEAN_MOTION_DDOT": 0}, "tle": {"line1": "1 66958U 25287F   25356.60202782  .00000091  00000+0  51078-4 0  9990", "line2": "2 66958  86.5063 342.3513 0107217  72.4964 288.7893 13.94921326  1911"}}, "geometry": {"type": "Point", "coordinates": [155.37481453925056, 62.815975516083874]}}, {"type": "Feature", "properties": {"norad_id": 66959, "name": "STARLINK-35887", "group": "last-30-days", "lat": 36.758883096943684, "lon": 157.82576301061627, "alt_km": 339.9292315369039, "timestamp": "2025-12-22T23:36:19.412694+00:00", "meta": {"OBJECT_NAME": "STARLINK-35887", "OBJECT_ID": "2025-288A", "EPOCH": "2025-12-22T20:00:01.999008", "MEAN_MOTION": 15.75428669, "ECCENTRICITY": 0.0001894, "INCLINATION": 43.0005, "RA_OF_ASC_NODE": 105.4537, "ARG_OF_PERICENTER": 275.8351, "MEAN_ANOMALY": 12.7825, "EPHEMERIS_TYPE": 0, "CLASSIFICATION_TYPE": "U", "NORAD_CAT_ID": 66959, "ELEMENT_SET_NO": 999, "REV_AT_EPOCH": 345, "BSTAR": -0.010342, "MEAN_MOTION_DOT": -0.01430542, "MEAN_MOTION_DDOT": 0}, "tle": {"line1": "1 66959U 25288A   25356.83335647 -.01430542  00000+0 -10342-1 0  9991", "line2": "2 66959  43.0005 105.4537 0001894 275.8351  12.7825 15.75428669  3457"}}, "geometry": {"type": "Point", "coordinates": [157.82576301061627, 36.758883096943684]}}]}